CCSDS_OMM_VERS = 2.0
CREATION_DATE  = 
ORIGINATOR     = 

OBJECT_NAME    = STARLINK-35699
OBJECT_ID      = 2025-268A
CENTER_NAME    = EARTH
REF_FRAME      = TEME
TIME_SYSTEM    = UTC
MEAN_ELEMENT_THEORY = SGP/SGP4

EPOCH          = 2025-11-28T20:00:03.000384
MEAN_MOTION    = 15.89013917
ECCENTRICITY   = .0001724
INCLINATION    = 42.9968
RA_OF_ASC_NODE = 204.4537
ARG_OF_PERICENTER = 272.3900
MEAN_ANOMALY   = 165.5593

EPHEMERIS_TYPE = 0
CLASSIFICATION_TYPE = U
NORAD_CAT_ID   = 66557
ELEMENT_SET_NO = 999
REV_AT_EPOCH   = 243
BSTAR          = -.5292E-2
MEAN_MOTION_DOT = -.1373014E-1
MEAN_MOTION_DDOT = 0

CCSDS_OMM_VERS = 2.0
CREATION_DATE  = 
ORIGINATOR     = 

OBJECT_NAME    = STARLINK-35695
OBJECT_ID      = 2025-268B
CENTER_NAME    = EARTH
REF_FRAME      = TEME
TIME_SYSTEM    = UTC
MEAN_ELEMENT_THEORY = SGP/SGP4

EPOCH          = 2025-11-28T20:00:03.000384
MEAN_MOTION    = 15.89066294
ECCENTRICITY   = .0001757
INCLINATION    = 42.9968
RA_OF_ASC_NODE = 204.4495
ARG_OF_PERICENTER = 272.0000
MEAN_ANOMALY   = 167.6548

EPHEMERIS_TYPE = 0
CLASSIFICATION_TYPE = U
NORAD_CAT_ID   = 66558
ELEMENT_SET_NO = 999
REV_AT_EPOCH   = 243
BSTAR          = -.53348E-2
MEAN_MOTION_DOT = -.1385974E-1
MEAN_MOTION_DDOT = 0

CCSDS_OMM_VERS = 2.0
CREATION_DATE  = 
ORIGINATOR     = 

OBJECT_NAME    = STARLINK-35419
OBJECT_ID      = 2025-268C
CENTER_NAME    = EARTH
REF_FRAME      = TEME
TIME_SYSTEM    = UTC
MEAN_ELEMENT_THEORY = SGP/SGP4

EPOCH          = 2025-11-28T20:00:03.000384
MEAN_MOTION    = 15.89124266
ECCENTRICITY   = .0001725
INCLINATION    = 42.9967
RA_OF_ASC_NODE = 204.4445
ARG_OF_PERICENTER = 271.8556
MEAN_ANOMALY   = 169.7332

EPHEMERIS_TYPE = 0
CLASSIFICATION_TYPE = U
NORAD_CAT_ID   = 66559
ELEMENT_SET_NO = 999
REV_AT_EPOCH   = 243
BSTAR          = -.54298E-2
MEAN_MOTION_DOT = -.141106E-1
MEAN_MOTION_DDOT = 0

CCSDS_OMM_VERS = 2.0
CREATION_DATE  = 
ORIGINATOR     = 

OBJECT_NAME    = STARLINK-35411
OBJECT_ID      = 2025-268D
CENTER_NAME    = EARTH
REF_FRAME      = TEME
TIME_SYSTEM    = UTC
MEAN_ELEMENT_THEORY = SGP/SGP4

EPOCH          = 2025-11-28T20:00:03.000384
MEAN_MOTION    = 15.89326271
ECCENTRICITY   = .000143
INCLINATION    = 42.9970
RA_OF_ASC_NODE = 204.4402
ARG_OF_PERICENTER = 284.4723
MEAN_ANOMALY   = 158.8727

EPHEMERIS_TYPE = 0
CLASSIFICATION_TYPE = U
NORAD_CAT_ID   = 66560
ELEMENT_SET_NO = 999
REV_AT_EPOCH   = 243
BSTAR          = -.64637E-2
MEAN_MOTION_DOT = -.1691998E-1
MEAN_MOTION_DDOT = 0

CCSDS_OMM_VERS = 2.0
CREATION_DATE  = 
ORIGINATOR     = 

OBJECT_NAME    = STARLINK-35305
OBJECT_ID      = 2025-268E
CENTER_NAME    = EARTH
REF_FRAME      = TEME
TIME_SYSTEM    = UTC
MEAN_ELEMENT_THEORY = SGP/SGP4

EPOCH          = 2025-11-28T20:00:03.000384
MEAN_MOTION    = 15.89268389
ECCENTRICITY   = .0001709
INCLINATION    = 42.9968
RA_OF_ASC_NODE = 204.4308
ARG_OF_PERICENTER = 272.0346
MEAN_ANOMALY   = 175.0160

EPHEMERIS_TYPE = 0
CLASSIFICATION_TYPE = U
NORAD_CAT_ID   = 66561
ELEMENT_SET_NO = 999
REV_AT_EPOCH   = 238
BSTAR          = -.55222E-2
MEAN_MOTION_DOT = -.1441104E-1
MEAN_MOTION_DDOT = 0

CCSDS_OMM_VERS = 2.0
CREATION_DATE  = 
ORIGINATOR     = 

OBJECT_NAME    = STARLINK-35579
OBJECT_ID      = 2025-268F
CENTER_NAME    = EARTH
REF_FRAME      = TEME
TIME_SYSTEM    = UTC
MEAN_ELEMENT_THEORY = SGP/SGP4

EPOCH          = 2025-11-28T20:00:03.000384
MEAN_MOTION    = 15.89223965
ECCENTRICITY   = .0001723
INCLINATION    = 42.9968
RA_OF_ASC_NODE = 204.4350
ARG_OF_PERICENTER = 272.4855
MEAN_ANOMALY   = 172.8200

EPHEMERIS_TYPE = 0
CLASSIFICATION_TYPE = U
NORAD_CAT_ID   = 66562
ELEMENT_SET_NO = 999
REV_AT_EPOCH   = 243
BSTAR          = -.55206E-2
MEAN_MOTION_DOT = -.1437914E-1
MEAN_MOTION_DDOT = 0

CCSDS_OMM_VERS = 2.0
CREATION_DATE  = 
ORIGINATOR     = 

OBJECT_NAME    = STARLINK-35437
OBJECT_ID      = 2025-268G
CENTER_NAME    = EARTH
REF_FRAME      = TEME
TIME_SYSTEM    = UTC
MEAN_ELEMENT_THEORY = SGP/SGP4

EPOCH          = 2025-11-28T20:00:03.000384
MEAN_MOTION    = 15.89316772
ECCENTRICITY   = .0001706
INCLINATION    = 42.9967
RA_OF_ASC_NODE = 204.4257
ARG_OF_PERICENTER = 271.8950
MEAN_ANOMALY   = 177.0938

EPHEMERIS_TYPE = 0
CLASSIFICATION_TYPE = U
NORAD_CAT_ID   = 66563
ELEMENT_SET_NO = 999
REV_AT_EPOCH   = 243
BSTAR          = -.55831E-2
MEAN_MOTION_DOT = -.1457971E-1
MEAN_MOTION_DDOT = 0

CCSDS_OMM_VERS = 2.0
CREATION_DATE  = 
ORIGINATOR     = 

OBJECT_NAME    = STARLINK-35358
OBJECT_ID      = 2025-268H
CENTER_NAME    = EARTH
REF_FRAME      = TEME
TIME_SYSTEM    = UTC
MEAN_ELEMENT_THEORY = SGP/SGP4

EPOCH          = 2025-11-28T20:00:03.000384
MEAN_MOTION    = 15.89291275
ECCENTRICITY   = .0002251
INCLINATION    = 42.9965
RA_OF_ASC_NODE = 204.4214
ARG_OF_PERICENTER = 268.8764
MEAN_ANOMALY   = 181.8676

EPHEMERIS_TYPE = 0
CLASSIFICATION_TYPE = U
NORAD_CAT_ID   = 66564
ELEMENT_SET_NO = 999
REV_AT_EPOCH   = 238
BSTAR          = -.5277E-2
MEAN_MOTION_DOT = -.1387138E-1
MEAN_MOTION_DDOT = 0

CCSDS_OMM_VERS = 2.0
CREATION_DATE  = 
ORIGINATOR     = 

OBJECT_NAME    = STARLINK-35893
OBJECT_ID      = 2025-268J
CENTER_NAME    = EARTH
REF_FRAME      = TEME
TIME_SYSTEM    = UTC
MEAN_ELEMENT_THEORY = SGP/SGP4

EPOCH          = 2025-11-28T20:00:03.000384
MEAN_MOTION    = 15.89405615
ECCENTRICITY   = .0001694
INCLINATION    = 42.9967
RA_OF_ASC_NODE = 204.4170
ARG_OF_PERICENTER = 270.8494
MEAN_ANOMALY   = 181.6114

EPHEMERIS_TYPE = 0
CLASSIFICATION_TYPE = U
NORAD_CAT_ID   = 66565
ELEMENT_SET_NO = 999
REV_AT_EPOCH   = 243
BSTAR          = -.55742E-2
MEAN_MOTION_DOT = -.1461715E-1
MEAN_MOTION_DDOT = 0

CCSDS_OMM_VERS = 2.0
CREATION_DATE  = 
ORIGINATOR     = 

OBJECT_NAME    = STARLINK-35871
OBJECT_ID      = 2025-268K
CENTER_NAME    = EARTH
REF_FRAME      = TEME
TIME_SYSTEM    = UTC
MEAN_ELEMENT_THEORY = SGP/SGP4

EPOCH          = 2025-11-28T20:00:03.000384
MEAN_MOTION    = 15.89454525
ECCENTRICITY   = .0001709
INCLINATION    = 42.9968
RA_OF_ASC_NODE = 204.4115
ARG_OF_PERICENTER = 272.4113
MEAN_ANOMALY   = 182.2320

EPHEMERIS_TYPE = 0
CLASSIFICATION_TYPE = U
NORAD_CAT_ID   = 66566
ELEMENT_SET_NO = 999
REV_AT_EPOCH   = 243
BSTAR          = -.56453E-2
MEAN_MOTION_DOT = -.1481002E-1
MEAN_MOTION_DDOT = 0

CCSDS_OMM_VERS = 2.0
CREATION_DATE  = 
ORIGINATOR     = 

OBJECT_NAME    = STARLINK-35825
OBJECT_ID      = 2025-268L
CENTER_NAME    = EARTH
REF_FRAME      = TEME
TIME_SYSTEM    = UTC
MEAN_ELEMENT_THEORY = SGP/SGP4

EPOCH          = 2025-11-28T20:00:03.000384
MEAN_MOTION    = 15.89500576
ECCENTRICITY   = .0001696
INCLINATION    = 42.9969
RA_OF_ASC_NODE = 204.4066
ARG_OF_PERICENTER = 271.7229
MEAN_ANOMALY   = 184.9276

EPHEMERIS_TYPE = 0
CLASSIFICATION_TYPE = U
NORAD_CAT_ID   = 66567
ELEMENT_SET_NO = 999
REV_AT_EPOCH   = 243
BSTAR          = -.56665E-2
MEAN_MOTION_DOT = -.1488811E-1
MEAN_MOTION_DDOT = 0

CCSDS_OMM_VERS = 2.0
CREATION_DATE  = 
ORIGINATOR     = 

OBJECT_NAME    = STARLINK-35803
OBJECT_ID      = 2025-268M
CENTER_NAME    = EARTH
REF_FRAME      = TEME
TIME_SYSTEM    = UTC
MEAN_ELEMENT_THEORY = SGP/SGP4

EPOCH          = 2025-11-28T20:00:03.000384
MEAN_MOTION    = 15.89535082
ECCENTRICITY   = .0001681
INCLINATION    = 42.9968
RA_OF_ASC_NODE = 204.4012
ARG_OF_PERICENTER = 275.4237
MEAN_ANOMALY   = 183.3485

EPHEMERIS_TYPE = 0
CLASSIFICATION_TYPE = U
NORAD_CAT_ID   = 66568
ELEMENT_SET_NO = 999
REV_AT_EPOCH   = 243
BSTAR          = -.56388E-2
MEAN_MOTION_DOT = -.1484813E-1
MEAN_MOTION_DDOT = 0

