STARLINK-35699          
1 66557U 25268A   25332.83336806 -.01373014  00000+0 -52920-2 0  9994
2 66557  42.9968 204.4537 0001724 272.3900 165.5593 15.89013917  2438
STARLINK-35695          
1 66558U 25268B   25332.83336806 -.01385974  00000+0 -53348-2 0  9998
2 66558  42.9968 204.4495 0001757 272.0000 167.6548 15.89066294  2435
STARLINK-35419          
1 66559U 25268C   25332.83336806 -.01411060  00000+0 -54298-2 0  9990
2 66559  42.9967 204.4445 0001725 271.8556 169.7332 15.89124266  2436
STARLINK-35411          
1 66560U 25268D   25332.83336806 -.01691998  00000+0 -64637-2 0  9990
2 66560  42.9970 204.4402 0001430 284.4723 158.8727 15.89326271  2431
STARLINK-35305          
1 66561U 25268E   25332.83336806 -.01441104  00000+0 -55222-2 0  9993
2 66561  42.9968 204.4308 0001709 272.0346 175.0160 15.89268389  2388
STARLINK-35579          
1 66562U 25268F   25332.83336806 -.01437914  00000+0 -55206-2 0  9990
2 66562  42.9968 204.4350 0001723 272.4855 172.8200 15.89223965  2438
STARLINK-35437          
1 66563U 25268G   25332.83336806 -.01457971  00000+0 -55831-2 0  9990
2 66563  42.9967 204.4257 0001706 271.8950 177.0938 15.89316772  2438
STARLINK-35358          
1 66564U 25268H   25332.83336806 -.01387138  00000+0 -52770-2 0  9997
2 66564  42.9965 204.4214 0002251 268.8764 181.8676 15.89291275  2381
STARLINK-35893          
1 66565U 25268J   25332.83336806 -.01461715  00000+0 -55742-2 0  9994
2 66565  42.9967 204.4170 0001694 270.8494 181.6114 15.89405615  2434
STARLINK-35871          
1 66566U 25268K   25332.83336806 -.01481002  00000+0 -56453-2 0  9996
2 66566  42.9968 204.4115 0001709 272.4113 182.2320 15.89454525  2438
STARLINK-35825          
1 66567U 25268L   25332.83336806 -.01488811  00000+0 -56665-2 0  9997
2 66567  42.9969 204.4066 0001696 271.7229 184.9276 15.89500576  2437
STARLINK-35803          
1 66568U 25268M   25332.83336806 -.01484813  00000+0 -56388-2 0  9998
2 66568  42.9968 204.4012 0001681 275.4237 183.3485 15.89535082  2437
